{
    "links": {
        "self": "http://www.neowsapp.com/rest/v1/neo/54087834?api_key=iIulBulltgU6a56xZRHN4H3l9WmuAYTsLGpBGhQ2"
    },
    "id": "54087834",
    "neo_reference_id": "54087834",
    "name": "(2020 VB5)",
    "designation": "2020 VB5",
    "nasa_jpl_url": "http://ssd.jpl.nasa.gov/sbdb.cgi?sstr=54087834",
    "absolute_magnitude_h": 27.666,
    "estimated_diameter": {
        "kilometers": {
            "estimated_diameter_min": 0.0077867275,
            "estimated_diameter_max": 0.017411652
        },
        "meters": {
            "estimated_diameter_min": 7.7867274995,
            "estimated_diameter_max": 17.4116520112
        },
        "miles": {
            "estimated_diameter_min": 0.0048384467,
            "estimated_diameter_max": 0.0108190956
        },
        "feet": {
            "estimated_diameter_min": 25.5470070495,
            "estimated_diameter_max": 57.1248443845
        }
    },
    "is_potentially_hazardous_asteroid": false,
    "close_approach_data": [
        {
            "close_approach_date": "2020-11-16",
            "close_approach_date_full": "2020-Nov-16 22:46",
            "epoch_date_close_approach": 1605566760000,
            "relative_velocity": {
                "kilometers_per_second": "17.2519154566",
                "kilometers_per_hour": "62106.8956438817",
                "miles_per_hour": "38590.8096849441"
            },
            "miss_distance": {
                "astronomical": "0.0077316646",
                "lunar": "3.0076175294",
                "kilometers": "1156640.555714402",
                "miles": "718703.1146146676"
            },
            "orbiting_body": "Earth"
        },
        {
            "close_approach_date": "2020-11-17",
            "close_approach_date_full": "2020-Nov-17 02:42",
            "epoch_date_close_approach": 1605580920000,
            "relative_velocity": {
                "kilometers_per_second": "17.7605900629",
                "kilometers_per_hour": "63938.1242263626",
                "miles_per_hour": "39728.6639116529"
            },
            "miss_distance": {
                "astronomical": "0.0088826928",
                "lunar": "3.4553674992",
                "kilometers": "1328831.922744336",
                "miles": "825697.8686743968"
            },
            "orbiting_body": "Moon"
        }
    ],
    "orbital_data": {
        "orbit_id": "1",
        "orbit_determination_date": "2020-11-15 07:42:05",
        "first_observation_date": "2020-11-14",
        "last_observation_date": "2020-11-15",
        "data_arc_in_days": 1,
        "observations_used": 22,
        "orbit_uncertainty": "8",
        "minimum_orbit_intersection": ".00100642",
        "jupiter_tisserand_invariant": "4.021",
        "epoch_osculation": "2459168.5",
        "eccentricity": ".6011308655667152",
        "semi_major_axis": "1.668604062435859",
        "inclination": "4.330297370794632",
        "ascending_node_longitude": "56.04420519161943",
        "orbital_period": "787.2784645143701",
        "perihelion_distance": ".6655546580956538",
        "perihelion_argument": "81.74587754087007",
        "aphelion_distance": "2.671653466776065",
        "perihelion_time": "2459218.592047443559",
        "mean_anomaly": "337.0943346064916",
        "mean_motion": ".4572714944286768",
        "equinox": "J2000",
        "orbit_class": {
            "orbit_class_type": "APO",
            "orbit_class_description": "Near-Earth asteroid orbits which cross the Earth’s orbit similar to that of 1862 Apollo",
            "orbit_class_range": "a (semi-major axis) > 1.0 AU; q (perihelion) < 1.017 AU"
        }
    },
    "is_sentry_object": false
}